$$SOE
2460154.500000000, A.D. 2023-Jul-29 00:00:00.0000, -1.230980155115069E+08, 3.734899122547531E+08, 6.081530811213936E+07,
2460161.500000000, A.D. 2023-Aug-05 00:00:00.0000, -1.331194904374383E+08, 3.715505522371217E+08, 6.358409718915272E+07,
2460168.500000000, A.D. 2023-Aug-12 00:00:00.0000, -1.430398410135561E+08, 3.693288517716279E+08, 6.630457304273748E+07,
2460175.500000000, A.D. 2023-Aug-19 00:00:00.0000, -1.528529915355257E+08, 3.668302653791163E+08, 6.897534491757016E+07,
2460182.500000000, A.D. 2023-Aug-26 00:00:00.0000, -1.625530908230524E+08, 3.640602701466632E+08, 7.159508866039573E+07,
2460189.500000000, A.D. 2023-Sep-02 00:00:00.0000, -1.721345039173251E+08, 3.610243597538563E+08, 7.416254390765858E+07,
2460196.500000000, A.D. 2023-Sep-09 00:00:00.0000, -1.815918039594108E+08, 3.577280390105885E+08, 7.667651136009382E+07,
2460203.500000000, A.D. 2023-Sep-16 00:00:00.0000, -1.909197640944166E+08, 3.541768188046710E+08, 7.913585012499198E+07,
2460210.500000000, A.D. 2023-Sep-23 00:00:00.0000, -2.001133489957013E+08, 3.503762117046341E+08, 8.153947511164886E+07,
2460217.500000000, A.D. 2023-Sep-30 00:00:00.0000, -2.091677063578420E+08, 3.463317293701155E+08, 8.388635460848995E+07,
2460224.500000000, A.D. 2023-Oct-07 00:00:00.0000, -2.180781607188422E+08, 3.420488811931019E+08, 8.617550821347505E+07,
2460231.500000000, A.D. 2023-Oct-14 00:00:00.0000, -2.268402085729311E+08, 3.375331708229772E+08, 8.840600475034070E+07,
2460238.500000000, A.D. 2023-Oct-21 00:00:00.0000, -2.354495115470464E+08, 3.327900921419272E+08, 9.057696000320037E+07,
2460245.500000000, A.D. 2023-Oct-28 00:00:00.0000, -2.439018890701774E+08, 3.278251269218742E+08, 9.268753458422673E+07,
2460252.500000000, A.D. 2023-Nov-04 00:00:00.0000, -2.521933117862524E+08, 3.226437433681623E+08, 9.473693198551171E+07,
2460259.500000000, A.D. 2023-Nov-11 00:00:00.0000, -2.603198955307866E+08, 3.172513949252087E+08, 9.672439674819934E+07,
2460266.500000000, A.D. 2023-Nov-18 00:00:00.0000, -2.682778956488948E+08, 3.116535192560483E+08, 9.864921272156909E+07,
2460273.500000000, A.D. 2023-Nov-25 00:00:00.0000, -2.760637015777618E+08, 3.058555373962432E+08, 1.005107014048910E+08,
2460280.500000000, A.D. 2023-Dec-02 00:00:00.0000, -2.836738316600977E+08, 2.998628530496112E+08, 1.023082203654819E+08,
2460287.500000000, A.D. 2023-Dec-09 00:00:00.0000, -2.911049281053407E+08, 2.936808519456607E+08, 1.040411617173762E+08,
2460294.500000000, A.D. 2023-Dec-16 00:00:00.0000, -2.983537518069437E+08, 2.873149012507885E+08, 1.057089506318060E+08,
2460301.500000000, A.D. 2023-Dec-23 00:00:00.0000, -3.054171766651275E+08, 2.807703497023222E+08, 1.073110439012581E+08,
2460308.500000000, A.D. 2023-Dec-30 00:00:00.0000, -3.122921847548131E+08, 2.740525295000975E+08, 1.088469287647988E+08,
2460315.500000000, A.D. 2024-Jan-06 00:00:00.0000, -3.189758641097959E+08, 2.671667575849994E+08, 1.103161219642311E+08,
2460322.500000000, A.D. 2024-Jan-13 00:00:00.0000, -3.254654059437725E+08, 2.601183344879239E+08, 1.117181685906667E+08,
2460329.500000000, A.D. 2024-Jan-20 00:00:00.0000, -3.317581000775634E+08, 2.529125438206247E+08, 1.130526408581015E+08,
2460336.500000000, A.D. 2024-Jan-27 00:00:00.0000, -3.378513305979218E+08, 2.455546530499853E+08, 1.143191370413907E+08,
2460343.500000000, A.D. 2024-Feb-03 00:00:00.0000, -3.437425721716767E+08, 2.380499145990579E+08, 1.155172805384845E+08,
2460350.500000000, A.D. 2024-Feb-10 00:00:00.0000, -3.494293867317056E+08, 2.304035669749809E+08, 1.166467190049208E+08,
2460357.500000000, A.D. 2024-Feb-17 00:00:00.0000, -3.549094203903664E+08, 2.226208359226077E+08, 1.177071235455687E+08,
2460364.500000000, A.D. 2024-Feb-24 00:00:00.0000, -3.601804005396191E+08, 2.147069356100242E+08, 1.186981879588338E+08,
2460371.500000000, A.D. 2024-Mar-02 00:00:00.0000, -3.652401331043978E+08, 2.066670698054886E+08, 1.196196280256637E+08,
2460378.500000000, A.D. 2024-Mar-09 00:00:00.0000, -3.700864998069755E+08, 1.985064329757318E+08, 1.204711808236362E+08,
2460385.500000000, A.D. 2024-Mar-16 00:00:00.0000, -3.747174550440125E+08, 1.902302114964566E+08, 1.212526040446044E+08,
2460392.500000000, A.D. 2024-Mar-23 00:00:00.0000, -3.791310224773389E+08, 1.818435860782922E+08, 1.219636754150301E+08,
2460399.500000000, A.D. 2024-Mar-30 00:00:00.0000, -3.833252935784461E+08, 1.733517353766784E+08, 1.226041924220950E+08,
2460406.500000000, A.D. 2024-Apr-06 00:00:00.0000, -3.872984278697898E+08, 1.647598374157234E+08, 1.231739720472033E+08,
2460413.500000000, A.D. 2024-Apr-13 00:00:00.0000, -3.910486513074200E+08, 1.560730696602124E+08, 1.236728502484032E+08,
2460420.500000000, A.D. 2024-Apr-20 00:00:00.0000, -3.945742537528051E+08, 1.472966104073690E+08, 1.241006814958439E+08,
2460427.500000000, A.D. 2024-Apr-27 00:00:00.0000, -3.978735870503471E+08, 1.384356409328505E+08, 1.244573384530740E+08,
2460434.500000000, A.D. 2024-May-04 00:00:00.0000, -4.009450636222485E+08, 1.294953476856798E+08, 1.247427117386597E+08,
2460441.500000000, A.D. 2024-May-11 00:00:00.0000, -4.037871553408366E+08, 1.204809244284621E+08, 1.249567097374796E+08,
2460448.500000000, A.D. 2024-May-18 00:00:00.0000, -4.063983925949230E+08, 1.113975743422735E+08, 1.250992584553849E+08,
2460455.500000000, A.D. 2024-May-25 00:00:00.0000, -4.087773635246319E+08, 1.022505120869058E+08, 1.251703014140360E+08,
2460462.500000000, A.D. 2024-Jun-01 00:00:00.0000, -4.109227133645012E+08, 9.304496575705910E+07, 1.251697995756216E+08,
2460469.500000000, A.D. 2024-Jun-08 00:00:00.0000, -4.128331436484745E+08, 8.378617870971885E+07, 1.250977312730392E+08,
2460476.500000000, A.D. 2024-Jun-15 00:00:00.0000, -4.145074108774143E+08, 7.447941180596973E+07, 1.249540921535349E+08,
2460483.500000000, A.D. 2024-Jun-22 00:00:00.0000, -4.159443256550084E+08, 6.512994724014772E+07, 1.247388953242611E+08,
2460490.500000000, A.D. 2024-Jun-29 00:00:00.0000, -4.171427544162578E+08, 5.574309213319355E+07, 1.244521717465414E+08,
2460497.500000000, A.D. 2024-Jul-06 00:00:00.0000, -4.181016211070933E+08, 4.632417941840385E+07, 1.240939704359377E+08,
2460504.500000000, A.D. 2024-Jul-13 00:00:00.0000, -4.188199068667093E+08, 3.687856884344812E+07, 1.236643585205675E+08,
2460511.500000000, A.D. 2024-Jul-20 00:00:00.0000, -4.192966496990183E+08, 2.741164923485812E+07, 1.231634214335451E+08,
2460518.500000000, A.D. 2024-Jul-27 00:00:00.0000, -4.195309447930345E+08, 1.792884106302134E+07, 1.225912632223437E+08,
2460525.500000000, A.D. 2024-Aug-03 00:00:00.0000, -4.195219452234872E+08, 8.435598932091564E+06, 1.219480069206578E+08,
2460532.500000000, A.D. 2024-Aug-10 00:00:00.0000, -4.192688628685229E+08, -1.062586009827554E+06, 1.212337949674727E+08,
2460539.500000000, A.D. 2024-Aug-17 00:00:00.0000, -4.187709694988194E+08, -1.056018371983864E+07, 1.204487896702537E+08,
2460546.500000000, A.D. 2024-Aug-24 00:00:00.0000, -4.180275980124117E+08, -2.005162299408156E+07, 1.195931737074079E+08,
2460553.500000000, A.D. 2024-Aug-31 00:00:00.0000, -4.170381437035642E+08, -2.953128935211814E+07, 1.186671506548470E+08,
2460560.500000000, A.D. 2024-Sep-07 00:00:00.0000, -4.158020652063275E+08, -3.899352294996198E+07, 1.176709455151105E+08,
2460567.500000000, A.D. 2024-Sep-14 00:00:00.0000, -4.143188850348403E+08, -4.843261552952278E+07, 1.166048053248738E+08,
2460574.500000000, A.D. 2024-Sep-21 00:00:00.0000, -4.125881917567845E+08, -5.784280599525909E+07, 1.154690000628483E+08,
2460581.500000000, A.D. 2024-Sep-28 00:00:00.0000, -4.106096442962844E+08, -6.721827784941414E+07, 1.142638236414880E+08,
2460588.500000000, A.D. 2024-Oct-05 00:00:00.0000, -4.083829747055447E+08, -7.655315848697039E+07, 1.129895946485016E+08,
2460595.500000000, A.D. 2024-Oct-12 00:00:00.0000, -4.059079897720203E+08, -8.584151737291928E+07, 1.116466571158821E+08,
2460602.500000000, A.D. 2024-Oct-19 00:00:00.0000, -4.031845732175216E+08, -9.507736337810457E+07, 1.102353814554974E+08,
2460609.500000000, A.D. 2024-Oct-26 00:00:00.0000, -4.002126885296468E+08, -1.042546420825088E+08, 1.087561655003778E+08,
2460616.500000000, A.D. 2024-Nov-02 00:00:00.0000, -3.969923821779804E+08, -1.133672332018139E+08, 1.072094356184628E+08,
2460623.500000000, A.D. 2024-Nov-09 00:00:00.0000, -3.935237871283586E+08, -1.224089481239405E+08, 1.055956478941262E+08,
2460630.500000000, A.D. 2024-Nov-16 00:00:00.0000, -3.898071266391319E+08, -1.313735275635116E+08, 1.039152893774620E+08,
2460637.500000000, A.D. 2024-Nov-23 00:00:00.0000, -3.858427183026832E+08, -1.402546393935091E+08, 1.021688793953056E+08,
2460644.500000000, A.D. 2024-Nov-30 00:00:00.0000, -3.816309781346419E+08, -1.490458767072771E+08, 1.003569709038687E+08,
2460651.500000000, A.D. 2024-Dec-07 00:00:00.0000, -3.771724243024672E+08, -1.577407557018182E+08, 9.848015188138843E+07,
2460658.500000000, A.D. 2024-Dec-14 00:00:00.0000, -3.724676811930745E+08, -1.663327121712225E+08, 9.653904692633781E+07,
2460665.500000000, A.D. 2024-Dec-21 00:00:00.0000, -3.675174861494501E+08, -1.748150978660390E+08, 9.453431917487541E+07,
2460672.500000000, A.D. 2024-Dec-28 00:00:00.0000, -3.623226969173794E+08, -1.831811797034599E+08, 9.246667211734228E+07,
2460679.500000000, A.D. 2025-Jan-04 00:00:00.0000, -3.568842972197743E+08, -1.914241394698971E+08, 9.033685127328216E+07,
2460686.500000000, A.D. 2025-Jan-11 00:00:00.0000, -3.512034022925297E+08, -1.995370723740129E+08, 8.814564603015251E+07,
2460693.500000000, A.D. 2025-Jan-18 00:00:00.0000, -3.452812653101236E+08, -2.075129853898008E+08, 8.589389165655233E+07,
2460700.500000000, A.D. 2025-Jan-25 00:00:00.0000, -3.391192844696681E+08, -2.153447958888611E+08, 8.358247143102084E+07,
2460707.500000000, A.D. 2025-Feb-01 00:00:00.0000, -3.327190105574952E+08, -2.230253306191412E+08, 8.121231886921008E+07,
2460714.500000000, A.D. 2025-Feb-08 00:00:00.0000, -3.260821549536297E+08, -2.305473250393313E+08, 7.878442004817246E+07,
2460721.500000000, A.D. 2025-Feb-15 00:00:00.0000, -3.192105980583097E+08, -2.379034230599865E+08, 7.629981602542154E+07,
$$EOE